{
  "type": "FeatureCollection",
  "features": [
    {
      "type": "Feature",
      "properties": {
        "norad_id": 31307,
        "name": "GALAXY 17 (G-17)",
        "group": "intelsat",
        "lat": 1.9597010186277914,
        "lon": -150.47577728290452,
        "alt_km": 35764.74279082232,
        "timestamp": "2025-12-06T14:35:36.794955+00:00",
        "meta_object_name": "GALAXY 17 (G-17)",
        "meta_object_id": "2007-016B",
        "meta_epoch": "2025-12-06T06:24:46.256256",
        "meta_mean_motion": 1.00270105,
        "meta_eccentricity": 0.00060798,
        "meta_inclination": 2.4829,
        "meta_ra_of_asc_node": 82.3582,
        "meta_arg_of_pericenter": 160.0737,
        "meta_mean_anomaly": 204.0669,
        "meta_ephemeris_type": 0,
        "meta_classification_type": "U",
        "meta_norad_cat_id": 31307,
        "meta_element_set_no": 999,
        "meta_rev_at_epoch": 6787,
        "meta_bstar": 0,
        "meta_mean_motion_dot": -1.99e-06,
        "meta_mean_motion_ddot": 0,
        "tle_line1": "1 31307U 07016B   25340.26720204 -.00000199  00000+0  00000+0 0  9993",
        "tle_line2": "2 31307   2.4829  82.3582 0006079 160.0737 204.0669  1.00270105 67876"
      },
      "geometry": {
        "type": "Point",
        "coordinates": [
          -150.47577728290452,
          1.9597010186277914
        ]
      }
    },
    {
      "type": "Feature",
      "properties": {
        "norad_id": 31862,
        "name": "DIRECTV 10",
        "group": "intelsat",
        "lat": 0.0023299273782292026,
        "lon": -168.25266689293366,
        "alt_km": 35784.663828505436,
        "timestamp": "2025-12-06T14:35:36.794967+00:00",
        "meta_object_name": "DIRECTV 10",
        "meta_object_id": "2007-032A",
        "meta_epoch": "2025-12-06T00:16:38.669952",
        "meta_mean_motion": 1.00271476,
        "meta_eccentricity": 3.614e-05,
        "meta_inclination": 0.0039,
        "meta_ra_of_asc_node": 84.3473,
        "meta_arg_of_pericenter": 112.2755,
        "meta_mean_anomaly": 139.8068,
        "meta_ephemeris_type": 0,
        "meta_classification_type": "U",
        "meta_norad_cat_id": 31862,
        "meta_element_set_no": 999,
        "meta_rev_at_epoch": 4365,
        "meta_bstar": 0,
        "meta_mean_motion_dot": -9.4e-07,
        "meta_mean_motion_ddot": 0,
        "tle_line1": "1 31862U 07032A   25340.01155868 -.00000094  00000+0  00000+0 0  9992",
        "tle_line2": "2 31862   0.0039  84.3473 0000361 112.2755 139.8068  1.00271476 43657"
      },
      "geometry": {
        "type": "Point",
        "coordinates": [
          -168.25266689293366,
          0.0023299273782292026
        ]
      }
    },
    {
      "type": "Feature",
      "properties": {
        "norad_id": 32253,
        "name": "INTELSAT 11 (IS-11)",
        "group": "intelsat",
        "lat": 2.9317062801557907,
        "lon": -172.83704646176582,
        "alt_km": 36110.957592564395,
        "timestamp": "2025-12-06T14:35:36.794978+00:00",
        "meta_object_name": "INTELSAT 11 (IS-11)",
        "meta_object_id": "2007-044B",
        "meta_epoch": "2025-12-06T07:48:09.503136",
        "meta_mean_motion": 0.99047158,
        "meta_eccentricity": 0.00092732,
        "meta_inclination": 3.0627,
        "meta_ra_of_asc_node": 81.0469,
        "meta_arg_of_pericenter": 162.9778,
        "meta_mean_anomaly": 202.3166,
        "meta_ephemeris_type": 0,
        "meta_classification_type": "U",
        "meta_norad_cat_id": 32253,
        "meta_element_set_no": 999,
        "meta_rev_at_epoch": 6654,
        "meta_bstar": 0,
        "meta_mean_motion_dot": 4.7e-07,
        "meta_mean_motion_ddot": 0,
        "tle_line1": "1 32253U 07044B   25340.32510999  .00000047  00000+0  00000+0 0  9991",
        "tle_line2": "2 32253   3.0627  81.0469 0009273 162.9778 202.3166  0.99047158 66548"
      },
      "geometry": {
        "type": "Point",
        "coordinates": [
          -172.83704646176582,
          2.9317062801557907
        ]
      }
    },
    {
      "type": "Feature",
      "properties": {
        "norad_id": 32388,
        "name": "HORIZONS-2",
        "group": "intelsat",
        "lat": 1.3934701928393414,
        "lon": -139.26097529631238,
        "alt_km": 35771.14696251425,
        "timestamp": "2025-12-06T14:35:36.794989+00:00",
        "meta_object_name": "HORIZONS-2",
        "meta_object_id": "2007-063B",
        "meta_epoch": "2025-12-06T06:28:00.945696",
        "meta_mean_motion": 1.00271217,
        "meta_eccentricity": 0.00050844,
        "meta_inclination": 2.1039,
        "meta_ra_of_asc_node": 83.0311,
        "meta_arg_of_pericenter": 183.8655,
        "meta_mean_anomaly": 191.6405,
        "meta_ephemeris_type": 0,
        "meta_classification_type": "U",
        "meta_norad_cat_id": 32388,
        "meta_element_set_no": 999,
        "meta_rev_at_epoch": 6588,
        "meta_bstar": 0,
        "meta_mean_motion_dot": -2.47e-06,
        "meta_mean_motion_ddot": 0,
        "tle_line1": "1 32388U 07063B   25340.26945539 -.00000247  00000+0  00000+0 0  9999",
        "tle_line2": "2 32388   2.1039  83.0311 0005084 183.8655 191.6405  1.00271217 65884"
      },
      "geometry": {
        "type": "Point",
        "coordinates": [
          -139.26097529631238,
          1.3934701928393414
        ]
      }
    },
    {
      "type": "Feature",
      "properties": {
        "norad_id": 32729,
        "name": "DIRECTV 11",
        "group": "intelsat",
        "lat": -0.006264986198257121,
        "lon": -164.66475236654352,
        "alt_km": 35784.81026189953,
        "timestamp": "2025-12-06T14:35:36.795001+00:00",
        "meta_object_name": "DIRECTV 11",
        "meta_object_id": "2008-013A",
        "meta_epoch": "2025-12-05T21:47:02.789088",
        "meta_mean_motion": 1.0026924,
        "meta_eccentricity": 4.793e-05,
        "meta_inclination": 0.0051,
        "meta_ra_of_asc_node": 253.8201,
        "meta_arg_of_pericenter": 295.7852,
        "meta_mean_anomaly": 112.9152,
        "meta_ephemeris_type": 0,
        "meta_classification_type": "U",
        "meta_norad_cat_id": 32729,
        "meta_element_set_no": 999,
        "meta_rev_at_epoch": 4365,
        "meta_bstar": 0,
        "meta_mean_motion_dot": -1.16e-06,
        "meta_mean_motion_ddot": 0,
        "tle_line1": "1 32729U 08013A   25339.90767117 -.00000116  00000+0  00000+0 0  9992",
        "tle_line2": "2 32729   0.0051 253.8201 0000479 295.7852 112.9152  1.00269240 43653"
      },
      "geometry": {
        "type": "Point",
        "coordinates": [
          -164.66475236654352,
          -0.006264986198257121
        ]
      }
    },
    {
      "type": "Feature",
      "properties": {
        "norad_id": 32951,
        "name": "GALAXY 18 (G-18)",
        "group": "intelsat",
        "lat": 0.0073564032641286565,
        "lon": 171.4893166207753,
        "alt_km": 35785.312592023525,
        "timestamp": "2025-12-06T14:35:36.795013+00:00",
        "meta_object_name": "GALAXY 18 (G-18)",
        "meta_object_id": "2008-024A",
        "meta_epoch": "2025-12-06T06:13:54.795936",
        "meta_mean_motion": 1.0026989,
        "meta_eccentricity": 0.00033341,
        "meta_inclination": 0.0151,
        "meta_ra_of_asc_node": 41.9109,
        "meta_arg_of_pericenter": 214.3924,
        "meta_mean_anomaly": 149.4696,
        "meta_ephemeris_type": 0,
        "meta_classification_type": "U",
        "meta_norad_cat_id": 32951,
        "meta_element_set_no": 999,
        "meta_rev_at_epoch": 4391,
        "meta_bstar": 0,
        "meta_mean_motion_dot": 3.3e-07,
        "meta_mean_motion_ddot": 0,
        "tle_line1": "1 32951U 08024A   25340.25966199  .00000033  00000+0  00000+0 0  9999",
        "tle_line2": "2 32951   0.0151  41.9109 0003334 214.3924 149.4696  1.00269890 43912"
      },
      "geometry": {
        "type": "Point",
        "coordinates": [
          171.4893166207753,
          0.0073564032641286565
        ]
      }
    },
    {
      "type": "Feature",
      "properties": {
        "norad_id": 33153,
        "name": "INTELSAT 25 (IS-25)",
        "group": "intelsat",
        "lat": -0.038409018270463384,
        "lon": -96.95101506747537,
        "alt_km": 35763.31345656658,
        "timestamp": "2025-12-06T14:35:36.795024+00:00",
        "meta_object_name": "INTELSAT 25 (IS-25)",
        "meta_object_id": "2008-034A",
        "meta_epoch": "2025-12-06T06:39:59.798880",
        "meta_mean_motion": 1.00270775,
        "meta_eccentricity": 0.00054485,
        "meta_inclination": 2.2102,
        "meta_ra_of_asc_node": 82.7189,
        "meta_arg_of_pericenter": 180.8026,
        "meta_mean_anomaly": 240.3072,
        "meta_ephemeris_type": 0,
        "meta_classification_type": "U",
        "meta_norad_cat_id": 33153,
        "meta_element_set_no": 999,
        "meta_rev_at_epoch": 6376,
        "meta_bstar": 0,
        "meta_mean_motion_dot": -2.17e-06,
        "meta_mean_motion_ddot": 0,
        "tle_line1": "1 33153U 08034A   25340.27777545 -.00000217  00000+0  00000+0 0  9997",
        "tle_line2": "2 33153   2.2102  82.7189 0005448 180.8026 240.3072  1.00270775 63764"
      },
      "geometry": {
        "type": "Point",
        "coordinates": [
          -96.95101506747537,
          -0.038409018270463384
        ]
      }
    }
  ]
}